[{"OBJECT_NAME":"ATLAS CENTAUR 2","OBJECT_ID":"1963-047A","EPOCH":"2026-03-28T05:00:01.012320","MEAN_MOTION":14.12139549,"ECCENTRICITY":0.05474391,"INCLINATION":30.3572,"RA_OF_ASC_NODE":92.1424,"ARG_OF_PERICENTER":243.5072,"MEAN_ANOMALY":110.8387,"EPHEMERIS_TYPE":0,"CLASSIFICATION_TYPE":"U","NORAD_CAT_ID":694,"ELEMENT_SET_NO":999,"REV_AT_EPOCH":13424,"BSTAR":0.00027649085,"MEAN_MOTION_DOT":2.38e-5,"MEAN_MOTION_DDOT":0},{"OBJECT_NAME":"THOR AGENA D R/B","OBJECT_ID":"1964-002A","EPOCH":"2026-03-28T00:17:23.669664","MEAN_MOTION":14.34029512,"ECCENTRICITY":0.00325281,"INCLINATION":99.1215,"RA_OF_ASC_NODE":101.348,"ARG_OF_PERICENTER":203.5353,"MEAN_ANOMALY":156.4343,"EPHEMERIS_TYPE":0,"CLASSIFICATION_TYPE":"U","NORAD_CAT_ID":733,"ELEMENT_SET_NO":999,"REV_AT_EPOCH":24092,"BSTAR":8.6196111e-5,"MEAN_MOTION_DOT":1.93e-6,"MEAN_MOTION_DDOT":0},{"OBJECT_NAME":"SL-3 R/B","OBJECT_ID":"1964-053B","EPOCH":"2026-03-28T05:41:57.590304","MEAN_MOTION":14.61380515,"ECCENTRICITY":0.00803945,"INCLINATION":65.0755,"RA_OF_ASC_NODE":276.857,"ARG_OF_PERICENTER":286.3928,"MEAN_ANOMALY":72.8345,"EPHEMERIS_TYPE":0,"CLASSIFICATION_TYPE":"U","NORAD_CAT_ID":877,"ELEMENT_SET_NO":999,"REV_AT_EPOCH":26950,"BSTAR":6.314582e-5,"MEAN_MOTION_DOT":2.01e-6,"MEAN_MOTION_DDOT":0},{"OBJECT_NAME":"SL-8 R/B","OBJECT_ID":"1967-045B","EPOCH":"2026-03-28T01:14:42.158976","MEAN_MOTION":14.45636798,"ECCENTRICITY":0.00648557,"INCLINATION":74.0112,"RA_OF_ASC_NODE":313.7983,"ARG_OF_PERICENTER":315.9865,"MEAN_ANOMALY":43.6138,"EPHEMERIS_TYPE":0,"CLASSIFICATION_TYPE":"U","NORAD_CAT_ID":2802,"ELEMENT_SET_NO":999,"REV_AT_EPOCH":9167,"BSTAR":8.4725825e-5,"MEAN_MOTION_DOT":2.78e-6,"MEAN_MOTION_DDOT":0},{"OBJECT_NAME":"SL-8 R/B","OBJECT_ID":"1968-040B","EPOCH":"2026-03-27T22:39:09.089280","MEAN_MOTION":15.03375208,"ECCENTRICITY":0.0023279,"INCLINATION":74.0292,"RA_OF_ASC_NODE":276.3891,"ARG_OF_PERICENTER":92.944,"MEAN_ANOMALY":267.4413,"EPHEMERIS_TYPE":0,"CLASSIFICATION_TYPE":"U","NORAD_CAT_ID":3230,"ELEMENT_SET_NO":999,"REV_AT_EPOCH":9275,"BSTAR":0.00026519,"MEAN_MOTION_DOT":3.584e-5,"MEAN_MOTION_DDOT":0},{"OBJECT_NAME":"OAO 2","OBJECT_ID":"1968-110A","EPOCH":"2026-03-28T04:51:52.332192","MEAN_MOTION":14.47317968,"ECCENTRICITY":0.00057934,"INCLINATION":34.9924,"RA_OF_ASC_NODE":161.8576,"ARG_OF_PERICENTER":340.5686,"MEAN_ANOMALY":19.4784,"EPHEMERIS_TYPE":0,"CLASSIFICATION_TYPE":"U","NORAD_CAT_ID":3597,"ELEMENT_SET_NO":999,"REV_AT_EPOCH":2178,"BSTAR":6.9997623e-5,"MEAN_MOTION_DOT":2.41e-6,"MEAN_MOTION_DDOT":0},{"OBJECT_NAME":"ISIS 1","OBJECT_ID":"1969-009A","EPOCH":"2026-03-28T03:04:23.467296","MEAN_MOTION":11.30418821,"ECCENTRICITY":0.17078495,"INCLINATION":88.4509,"RA_OF_ASC_NODE":153.2965,"ARG_OF_PERICENTER":51.9681,"MEAN_ANOMALY":322.3549,"EPHEMERIS_TYPE":0,"CLASSIFICATION_TYPE":"U","NORAD_CAT_ID":3669,"ELEMENT_SET_NO":999,"REV_AT_EPOCH":35061,"BSTAR":6.2820026e-5,"MEAN_MOTION_DOT":1.08e-6,"MEAN_MOTION_DDOT":0},{"OBJECT_NAME":"SERT 2","OBJECT_ID":"1970-009A","EPOCH":"2026-03-28T06:38:07.891872","MEAN_MOTION":13.58731528,"ECCENTRICITY":0.00056201,"INCLINATION":99.2782,"RA_OF_ASC_NODE":29.3553,"ARG_OF_PERICENTER":112.7569,"MEAN_ANOMALY":53.7585,"EPHEMERIS_TYPE":0,"CLASSIFICATION_TYPE":"U","NORAD_CAT_ID":4327,"ELEMENT_SET_NO":999,"REV_AT_EPOCH":78241,"BSTAR":5.4734664e-5,"MEAN_MOTION_DOT":-1.0e-8,"MEAN_MOTION_DDOT":0},{"OBJECT_NAME":"SL-3 R/B","OBJECT_ID":"1971-028B","EPOCH":"2026-03-28T05:38:10.296096","MEAN_MOTION":15.6275238,"ECCENTRICITY":0.00143365,"INCLINATION":81.2367,"RA_OF_ASC_NODE":29.0981,"ARG_OF_PERICENTER":208.2277,"MEAN_ANOMALY":151.8202,"EPHEMERIS_TYPE":0,"CLASSIFICATION_TYPE":"U","NORAD_CAT_ID":5118,"ELEMENT_SET_NO":999,"REV_AT_EPOCH":99156,"BSTAR":0.00052672577,"MEAN_MOTION_DOT":0.00047744,"MEAN_MOTION_DDOT":0},{"OBJECT_NAME":"ASTEX 1","OBJECT_ID":"1971-089A","EPOCH":"2026-03-28T05:42:51.250752","MEAN_MOTION":14.50788218,"ECCENTRICITY":0.00164825,"INCLINATION":92.7093,"RA_OF_ASC_NODE":157.7548,"ARG_OF_PERICENTER":29.8961,"MEAN_ANOMALY":330.3183,"EPHEMERIS_TYPE":0,"CLASSIFICATION_TYPE":"U","NORAD_CAT_ID":5560,"ELEMENT_SET_NO":999,"REV_AT_EPOCH":86499,"BSTAR":0.0001146476,"MEAN_MOTION_DOT":4.51e-6,"MEAN_MOTION_DDOT":0},{"OBJECT_NAME":"SL-8 R/B","OBJECT_ID":"1971-119B","EPOCH":"2026-03-28T05:34:06.137472","MEAN_MOTION":14.38215275,"ECCENTRICITY":0.05465486,"INCLINATION":73.8857,"RA_OF_ASC_NODE":141.052,"ARG_OF_PERICENTER":103.7599,"MEAN_ANOMALY":262.4982,"EPHEMERIS_TYPE":0,"CLASSIFICATION_TYPE":"U","NORAD_CAT_ID":5730,"ELEMENT_SET_NO":999,"REV_AT_EPOCH":65815,"BSTAR":0.00039350998,"MEAN_MOTION_DOT":7.513e-5,"MEAN_MOTION_DDOT":0},{"OBJECT_NAME":"OAO 3 (COPERNICUS)","OBJECT_ID":"1972-065A","EPOCH":"2026-03-28T06:14:59.555328","MEAN_MOTION":14.60012475,"ECCENTRICITY":0.00071756,"INCLINATION":35.0049,"RA_OF_ASC_NODE":191.5078,"ARG_OF_PERICENTER":309.552,"MEAN_ANOMALY":67.6126,"EPHEMERIS_TYPE":0,"CLASSIFICATION_TYPE":"U","NORAD_CAT_ID":6153,"ELEMENT_SET_NO":999,"REV_AT_EPOCH":84891,"BSTAR":7.7719806e-5,"MEAN_MOTION_DOT":3.58e-6,"MEAN_MOTION_DDOT":0},{"OBJECT_NAME":"ATLAS CENTAUR R/B","OBJECT_ID":"1972-065B","EPOCH":"2026-03-28T06:34:27.224544","MEAN_MOTION":14.77738863,"ECCENTRICITY":0.00333286,"INCLINATION":35.0008,"RA_OF_ASC_NODE":196.8371,"ARG_OF_PERICENTER":167.6729,"MEAN_ANOMALY":192.4793,"EPHEMERIS_TYPE":0,"CLASSIFICATION_TYPE":"U","NORAD_CAT_ID":6155,"ELEMENT_SET_NO":999,"REV_AT_EPOCH":84401,"BSTAR":0.00020235881,"MEAN_MOTION_DOT":1.465e-5,"MEAN_MOTION_DDOT":0},{"OBJECT_NAME":"SL-8 R/B","OBJECT_ID":"1975-112B","EPOCH":"2026-03-28T03:28:39.167328","MEAN_MOTION":14.38214218,"ECCENTRICITY":0.00145418,"INCLINATION":74.063,"RA_OF_ASC_NODE":344.966,"ARG_OF_PERICENTER":70.5759,"MEAN_ANOMALY":289.6965,"EPHEMERIS_TYPE":0,"CLASSIFICATION_TYPE":"U","NORAD_CAT_ID":8459,"ELEMENT_SET_NO":999,"REV_AT_EPOCH":63452,"BSTAR":8.409328e-5,"MEAN_MOTION_DOT":2.3e-6,"MEAN_MOTION_DDOT":0},{"OBJECT_NAME":"SL-3 R/B","OBJECT_ID":"1977-057B","EPOCH":"2026-03-28T05:35:57.614208","MEAN_MOTION":15.46012592,"ECCENTRICITY":0.00067268,"INCLINATION":97.5796,"RA_OF_ASC_NODE":259.9806,"ARG_OF_PERICENTER":207.0642,"MEAN_ANOMALY":153.0257,"EPHEMERIS_TYPE":0,"CLASSIFICATION_TYPE":"U","NORAD_CAT_ID":10114,"ELEMENT_SET_NO":999,"REV_AT_EPOCH":67119,"BSTAR":0.00032143763,"MEAN_MOTION_DOT":0.00015615,"MEAN_MOTION_DDOT":0},{"OBJECT_NAME":"SEASAT 1","OBJECT_ID":"1978-064A","EPOCH":"2026-03-28T02:28:49.184256","MEAN_MOTION":14.46174958,"ECCENTRICITY":0.00026352,"INCLINATION":108.0077,"RA_OF_ASC_NODE":164.136,"ARG_OF_PERICENTER":276.7713,"MEAN_ANOMALY":83.3133,"EPHEMERIS_TYPE":0,"CLASSIFICATION_TYPE":"U","NORAD_CAT_ID":10967,"ELEMENT_SET_NO":999,"REV_AT_EPOCH":50917,"BSTAR":0.00010593332,"MEAN_MOTION_DOT":2.42e-6,"MEAN_MOTION_DDOT":0},{"OBJECT_NAME":"SL-14 R/B","OBJECT_ID":"1979-011B","EPOCH":"2026-03-28T05:25:06.270528","MEAN_MOTION":14.91931478,"ECCENTRICITY":0.00160064,"INCLINATION":82.5209,"RA_OF_ASC_NODE":78.976,"ARG_OF_PERICENTER":1.6473,"MEAN_ANOMALY":358.4796,"EPHEMERIS_TYPE":0,"CLASSIFICATION_TYPE":"U","NORAD_CAT_ID":11267,"ELEMENT_SET_NO":999,"REV_AT_EPOCH":53154,"BSTAR":7.1744441e-5,"MEAN_MOTION_DOT":7.53e-6,"MEAN_MOTION_DDOT":0}]
