ATLAS CENTAUR 2         
1 00694U 63047A   26087.20834505  .00002380  00000+0  27649-3 0  9992
2 00694  30.3572  92.1424 0547439 243.5072 110.8387 14.12139549134249
THOR AGENA D R/B        
1 00733U 64002A   26087.01207951  .00000193  00000+0  86196-4 0  9999
2 00733  99.1215 101.3480 0032528 203.5353 156.4343 14.34029512240924
SL-3 R/B                
1 00877U 64053B   26087.23747211  .00000201  00000+0  63146-4 0  9996
2 00877  65.0755 276.8570 0080394 286.3928  72.8345 14.61380515269504
SL-8 R/B                
1 02802U 67045B   26087.05187684  .00000278  00000+0  84726-4 0  9993
2 02802  74.0112 313.7983 0064855 315.9865  43.6138 14.45636798 91679
SL-8 R/B                
1 03230U 68040B   26086.94385520  .00003584  00000+0  26519-3 0  9999
2 03230  74.0292 276.3891 0023279  92.9440 267.4413 15.03375208 92755
OAO 2                   
1 03597U 68110A   26087.20268903  .00000241  00000+0  69998-4 0  9994
2 03597  34.9924 161.8576 0005793 340.5686  19.4784 14.47317968 21788
ISIS 1                  
1 03669U 69009A   26087.12804939  .00000108  00000+0  62820-4 0  9997
2 03669  88.4509 153.2965 1707849  51.9681 322.3549 11.30418821350619
SERT 2                  
1 04327U 70009A   26087.27648023 -.00000001  00000+0  54735-4 0  9996
2 04327  99.2782  29.3553 0005620 112.7569  53.7585 13.58731528782414
SL-3 R/B                
1 05118U 71028B   26087.23484139  .00047744  00000+0  52673-3 0  9991
2 05118  81.2367  29.0981 0014336 208.2277 151.8202 15.62752380991566
ASTEX 1                 
1 05560U 71089A   26087.23809318  .00000451  00000+0  11465-3 0  9997
2 05560  92.7093 157.7548 0016482  29.8961 330.3183 14.50788218864992
SL-8 R/B                
1 05730U 71119B   26087.23201548  .00007513  00000+0  39351-3 0  9991
2 05730  73.8857 141.0520 0546548 103.7599 262.4982 14.38215275658150
OAO 3 (COPERNICUS)      
1 06153U 72065A   26087.26041152  .00000358  00000+0  77720-4 0  9991
2 06153  35.0049 191.5078 0007175 309.5520  67.6126 14.60012475848911
ATLAS CENTAUR R/B       
1 06155U 72065B   26087.27392621  .00001465  00000+0  20236-3 0  9993
2 06155  35.0008 196.8371 0033328 167.6729 192.4793 14.77738863844013
SL-8 R/B                
1 08459U 75112B   26087.14489777  .00000230  00000+0  84093-4 0  9994
2 08459  74.0630 344.9660 0014541  70.5759 289.6965 14.38214218634527
SL-3 R/B                
1 10114U 77057B   26087.23330572  .00015615  00000+0  32144-3 0  9995
2 10114  97.5796 259.9806 0006726 207.0642 153.0257 15.46012592671195
SEASAT 1                
1 10967U 78064A   26087.10334704  .00000242  00000+0  10593-3 0  9991
2 10967 108.0077 164.1360 0002635 276.7713  83.3133 14.46174958509170
SL-14 R/B               
1 11267U 79011B   26087.22576702  .00000753  00000+0  71744-4 0  9990
2 11267  82.5209  78.9760 0016006   1.6473 358.4796 14.91931478531543
